     2.10           N: GPS NAV DATA                         RINEX VERSION / TYPE
teqc  2013Mar15     gpsops              20140510 00:05:22UTCPGM / RUN BY / DATE
Linux 2.4.21-27.ELsmp|Opteron|gcc -static|Linux x86_64|=+   COMMENT
MADR                                    MARKER NAME         COMMENT
13407S012                               MARKER NUMBER       COMMENT
4849202.3940 -360328.9929 4114913.1862                      COMMENT
                                                            COMMENT
This data is provided as a public service by NASA/JPL.      COMMENT
No warranty is expressed or implied regarding suitability   COMMENT
for use.  For further information, contact:                 COMMENT
Dave Stowers, NASA/JPL m/s 238-600                          COMMENT
4800 Oak Grove Drive, Pasadena CA 91109 USA                 COMMENT
                                                            END OF HEADER
11 14  5  9 21 59 44.0-4.875892773271D-04-3.183231456205D-12 0.000000000000D+00
    4.000000000000D+00-5.725000000000D+01 6.483484348862D-09-1.050110540496D+00
   -2.838671207428D-06 1.490897126496D-02 6.364658474922D-06 5.153697841644D+03
    5.111840000000D+05-5.587935447693D-08-1.644520283819D+00 3.650784492493D-07
    8.901079263965D-01 2.167500000000D+02 1.281340353723D+00-9.226098589753D-09
   -4.450185368083D-10 1.000000000000D+00 1.791000000000D+03 0.000000000000D+00
    2.000000000000D+00 0.000000000000D+00-1.210719347000D-08 4.000000000000D+00
    5.095200000000D+05 4.000000000000D+00
 3 14  5 10  0  0  0.0 3.626933321357D-04 5.115907697473D-12 0.000000000000D+00
    4.600000000000D+01 4.000000000000D+00 5.595947379384D-09 1.212683089118D+00
    2.048909664154D-08 1.694812497590D-02 5.584210157394D-06 5.153785501480D+03
    5.184000000000D+05-3.818422555923D-07-2.525643252642D+00-1.993030309677D-07
    9.382271948486D-01 2.659062500000D+02 1.380080853587D+00-8.822510350112D-09
    1.867934949846D-10 1.000000000000D+00 1.791000000000D+03 0.000000000000D+00
    2.800000000000D+00 0.000000000000D+00-4.656612873077D-09 4.600000000000D+01
    5.112000000000D+05 4.000000000000D+00
 7 14  5 10  0  0  0.0 3.445181064308D-04 4.206412995700D-12 0.000000000000D+00
    8.200000000000D+01-5.606250000000D+01 4.262320399896D-09-1.704989138041D-01
   -2.805143594742D-06 7.280498743057D-03 8.180737495422D-06 5.153634319305D+03
    5.184000000000D+05 1.005828380585D-07 1.838759508286D+00 4.842877388000D-08
    9.733365250874D-01 2.278750000000D+02-2.842242484248D+00-8.105337619846D-09
   -2.010798043524D-10 1.000000000000D+00 1.791000000000D+03 0.000000000000D+00
    2.000000000000D+00 0.000000000000D+00-1.071020960808D-08 8.200000000000D+01
    5.112000000000D+05 4.000000000000D+00
21 14  5 10  0  0  0.0-3.601601347327D-04-2.160049916711D-12 0.000000000000D+00
    8.500000000000D+01-3.684375000000D+01 5.260219109240D-09-1.125157607445D+00
   -1.782551407814D-06 2.147608075757D-02 8.126720786095D-06 5.153760784149D+03
    5.184000000000D+05 1.676380634308D-07-1.333544554661D+00 5.457550287247D-07
    9.319813831426D-01 2.055625000000D+02-2.028286386887D+00-8.510711648159D-09
   -4.450185368083D-10 1.000000000000D+00 1.791000000000D+03 0.000000000000D+00
    2.000000000000D+00 0.000000000000D+00-1.117587089539D-08 8.500000000000D+01
    5.112000000000D+05 4.000000000000D+00
27 14  5 10  0  0  0.0-1.706415787339D-05 1.591615728103D-12 0.000000000000D+00
    4.100000000000D+01-3.843750000000D+00 4.920919261754D-09 2.679113732709D+00
   -1.657754182816D-07 1.207452267408D-03 5.122274160385D-06 5.153669050217D+03
    5.184000000000D+05-9.126961231232D-08-2.376893451221D+00-7.450580596924D-09
    9.632117553730D-01 2.819687500000D+02 1.137751766785D-01-8.282130698273D-09
    1.332198348551D-10 1.000000000000D+00 1.791000000000D+03 0.000000000000D+00
    2.000000000000D+00 0.000000000000D+00 1.862645149231D-09 4.100000000000D+01
    5.112000000000D+05 4.000000000000D+00
11 14  5  9 23 59 44.0-4.876120947301D-04-3.183231456205D-12 0.000000000000D+00
    3.100000000000D+01-5.187500000000D+01 6.575273886550D-09 8.698510899323D-05
   -2.508983016014D-06 1.490965508856D-02 6.495043635368D-06 5.153699207306D+03
    5.183840000000D+05-1.378357410431D-07-1.644588097387D+00 1.285225152969D-07
    8.901044578178D-01 2.152187500000D+02 1.281323651587D+00-9.388605358812D-09
   -3.953736117551D-10 1.000000000000D+00 1.791000000000D+03 0.000000000000D+00
    2.000000000000D+00 0.000000000000D+00-1.210719347000D-08 3.100000000000D+01
    5.112300000000D+05 4.000000000000D+00
16 14  5 10  0  0  0.0-2.192407846451D-04 1.932676241267D-12 0.000000000000D+00
    1.500000000000D+01 2.509375000000D+01 3.900876772890D-09-2.751963773194D+00
    1.221895217896D-06 7.741162669845D-03 9.784474968910D-06 5.153589710236D+03
    5.184000000000D+05-1.117587089539D-07 2.920031703361D+00-6.146728992462D-08
    9.882943811479D-01 2.089687500000D+02 1.966747504642D-01-7.637460988049D-09
    3.768014095769D-10 1.000000000000D+00 1.791000000000D+03 0.000000000000D+00
    2.000000000000D+00 0.000000000000D+00-1.024454832077D-08 1.500000000000D+01
    5.112300000000D+05 4.000000000000D+00
18 14  5 10  0  0  0.0 3.182650543749D-04 2.273736754432D-12 0.000000000000D+00
    3.300000000000D+01 5.896875000000D+01 4.989850704453D-09-2.095799642239D+00
    2.967193722725D-06 1.520864746999D-02 9.305775165558D-06 5.153693923950D+03
    5.184000000000D+05 1.937150955200D-07-2.882349163126D-01-1.490116119385D-07
    9.262085138337D-01 1.819375000000D+02-2.041083602182D+00-8.008190716145D-09
    1.289339420448D-10 1.000000000000D+00 1.791000000000D+03 0.000000000000D+00
    2.000000000000D+00 0.000000000000D+00-1.117587089539D-08 3.300000000000D+01
    5.112300000000D+05 4.000000000000D+00
19 14  5 10  0  0  0.0-4.559410735965D-04-2.273736754432D-12 0.000000000000D+00
    1.100000000000D+02-1.218750000000D+01 4.940920094869D-09 1.807762455397D+00
   -4.917383193970D-07 1.029305753764D-02 5.403533577919D-06 5.153606161118D+03
    5.184000000000D+05-2.104789018631D-07-2.280598502733D+00 2.197921276093D-07
    9.655330201544D-01 2.812187500000D+02 4.243057588837D-01-8.371777289556D-09
   -1.964367538078D-11 1.000000000000D+00 1.791000000000D+03 0.000000000000D+00
    2.000000000000D+00 0.000000000000D+00-1.490116119385D-08 1.100000000000D+02
    5.112300000000D+05 4.000000000000D+00
22 14  5 10  0  0  0.0 2.330350689590D-04 2.955857780762D-12 0.000000000000D+00
    5.000000000000D+00 5.721875000000D+01 5.057353516217D-09-2.652999032859D+00
    2.907589077950D-06 7.165181799792D-03 9.534880518913D-06 5.153729644775D+03
    5.184000000000D+05-2.980232238770D-08-2.863171521329D-01-2.607703208923D-08
    9.239829238947D-01 1.763750000000D+02-2.059169804688D+00-8.132124449911D-09
    1.160762636137D-10 1.000000000000D+00 1.791000000000D+03 0.000000000000D+00
    2.000000000000D+00 0.000000000000D+00-1.722946763039D-08 5.000000000000D+00
    5.112300000000D+05 4.000000000000D+00
32 14  5 10  0  0  0.0-4.323064349592D-04 8.071765478235D-12 0.000000000000D+00
    7.300000000000D+01 6.337500000000D+01 4.784127849557D-09 4.050101283547D-01
    3.211200237274D-06 1.141514128540D-02 9.199604392052D-06 5.153749134064D+03
    5.184000000000D+05 2.477318048477D-07-1.945585151145D-01-1.676380634308D-08
    9.481732896005D-01 1.943750000000D+02-1.608813085294D-01-8.328918361453D-09
    1.496490906282D-10 1.000000000000D+00 1.791000000000D+03 0.000000000000D+00
    2.000000000000D+00 0.000000000000D+00-3.259629011154D-09 7.300000000000D+01
    5.120400000000D+05 4.000000000000D+00
 1 14  5 10  0  0  0.0 1.167040318251D-05 1.364242052659D-12 0.000000000000D+00
    2.600000000000D+01-4.934375000000D+01 4.619835291826D-09 4.663762897130D-01
   -2.536922693253D-06 3.005843027495D-03 8.929520845413D-06 5.153682182312D+03
    5.184000000000D+05 4.097819328308D-08-1.321788261169D+00 1.117587089539D-08
    9.605089220577D-01 2.014375000000D+02 3.056131820386D-01-8.133910238582D-09
   -4.943063041274D-10 1.000000000000D+00 1.791000000000D+03 0.000000000000D+00
    2.000000000000D+00 0.000000000000D+00 5.587935447693D-09 2.600000000000D+01
    5.121300000000D+05 4.000000000000D+00
 8 14  5 10  0  0  0.0 1.347158104181D-05 2.273736754432D-13 0.000000000000D+00
    7.900000000000D+01-5.065625000000D+01 3.703368545879D-09-6.939139215344D-01
   -2.525746822357D-06 1.367847237270D-02 8.707866072655D-06 5.153478038788D+03
    5.184000000000D+05 2.905726432800D-07 1.937830593988D+00 5.029141902924D-08
    9.966003369986D-01 2.260937500000D+02-2.779382897117D+00-7.801039230311D-09
   -1.550064566411D-10 1.000000000000D+00 1.791000000000D+03 0.000000000000D+00
    2.800000000000D+00 0.000000000000D+00-4.190951585770D-09 7.900000000000D+01
    5.127600000000D+05 4.000000000000D+00
14 14  5 10  0  0  0.0 1.743095926940D-04-3.410605131648D-12 0.000000000000D+00
    5.600000000000D+01 2.256250000000D+01 4.336966366343D-09 2.511846077249D+00
    1.193955540657D-06 7.451316225342D-03 4.306435585022D-06 5.153654659271D+03
    5.184000000000D+05 6.332993507385D-08 8.420835735323D-01-1.061707735062D-07
    9.704321265304D-01 3.003125000000D+02-2.000582497183D+00-8.054264063856D-09
    8.464638300447D-11 1.000000000000D+00 1.791000000000D+03 0.000000000000D+00
    2.000000000000D+00 0.000000000000D+00-9.313225746155D-09 5.600000000000D+01
    5.142600000000D+05 4.000000000000D+00
19 14  5  9 23 59 44.0-4.559406079352D-04-2.273736754432D-12 0.000000000000D+00
    6.000000000000D+00-1.218750000000D+01 4.940920094869D-09 1.805428523208D+00
   -4.917383193970D-07 1.029306219425D-02 5.403533577919D-06 5.153606161118D+03
    5.183840000000D+05-2.104789018631D-07-2.280598350590D+00 2.197921276093D-07
    9.655329996736D-01 2.812187500000D+02 4.243059183418D-01-8.371777289556D-09
   -1.964367538078D-11 1.000000000000D+00 1.791000000000D+03 0.000000000000D+00
    2.000000000000D+00 0.000000000000D+00-1.490116119385D-08 6.000000000000D+00
    5.145000000000D+05 4.000000000000D+00
